IDEFIX & ARIANE 42P R/B 
1 27422U 02021B   26004.30824858  .00000526  00000+0  21650-3 0  9991
2 27422  98.5809 303.7092 0012300  21.9429 338.2278 14.30971076234814
AQUA                    
1 27424U 02022A   26003.93831470  .00001925  00000+0  39553-3 0  9995
2 27424  98.4067 330.1809 0002003  92.1713 343.8415 14.61796291259276
CZ-4B R/B               
1 27432U 02024C   26004.13073081  .00000124  00000+0  87120-4 0  9999
2 27432  98.8963  57.8207 0049792 205.4469 173.2202 14.14533557220114
MIDORI II (ADEOS-II)    
1 27597U 02056A   26004.11804646  .00000600  00000+0  25408-3 0  9992
2 27597  98.7664 322.1953 0001256 135.1574 224.9709 14.29226750201078
H-2A R/B                
1 27601U 02056E   26003.87407579  .00000749  00000+0  27715-3 0  9991
2 27601  98.3093 326.7533 0070324 355.7096  65.5379 14.33701563204824
CZ-4B R/B               
1 28059U 03049C   26004.22174188  .00000740  00000+0  18096-3 0  9992
2 28059  98.6803 356.6370 0049273  68.8794 291.7659 14.54936707177221
CZ-2C R/B               
1 28222U 04012C   26004.11339213  .00054168  00000+0  72931-3 0  9996
2 28222  97.7372  63.6082 0016820 184.6043 175.5060 15.57520758194206
SL-16 R/B               
1 28353U 04021B   26004.24981606  .00000394  00000+0  22972-3 0  9996
2 28353  71.0016   7.7250 0003908 162.6241 197.5016 14.14587714113726
CZ-4B R/B               
1 28415U 04035C   26004.09545621  .00013029  00000+0  47467-3 0  9991
2 28415  97.3575  39.1437 0032469 195.0044 165.0236 15.27816335170048
CZ-2C R/B               
1 28480U 04046B   26004.25679440  .00000504  00000+0  20266-3 0  9992
2 28480  98.1998 283.2370 0139263 345.8999  13.8312 14.26959046 99310
ARIANE 5 R/B            
1 28499U 04049H   26004.02248013  .00002246  00000+0  25376-3 0  9990
2 28499  98.2528 170.1057 0083984 199.9532 159.8391 14.85088956136199
CZ-2D R/B               
1 28738U 05024B   26004.00351561  .00044379  00000+0  66672-3 0  9998
2 28738  97.3615  17.0554 0003032 250.9020 109.1906 15.54752201129717
